{
  "type": "FeatureCollection",
  "features": [
    {
      "type": "Feature",
      "properties": {
        "norad_id": 31692,
        "name": "FENGYUN 1C DEB",
        "group": "fengyun-1c-debris",
        "lat": -43.59223541508564,
        "lon": 3.661561561628032,
        "alt_km": 841.2355337782228,
        "timestamp": "2025-12-23T22:42:33.268239+00:00",
        "meta_object_name": "FENGYUN 1C DEB",
        "meta_object_id": "1999-025CDA",
        "meta_epoch": "2025-12-18T22:43:06.035232",
        "meta_mean_motion": 14.18414405,
        "meta_eccentricity": 0.00880976,
        "meta_inclination": 99.1757,
        "meta_ra_of_asc_node": 349.6414,
        "meta_arg_of_pericenter": 64.1143,
        "meta_mean_anomaly": 296.9081,
        "meta_ephemeris_type": 0,
        "meta_classification_type": "U",
        "meta_norad_cat_id": 31692,
        "meta_element_set_no": 999,
        "meta_rev_at_epoch": 58297,
        "meta_bstar": 0.002131478,
        "meta_mean_motion_dot": 4.527e-05,
        "meta_mean_motion_ddot": 0,
        "tle_line1": "1 31692U 99025CDA 25352.94659763  .00004527  00000+0  21315-2 0  9993",
        "tle_line2": "2 31692  99.1757 349.6414 0088097  64.1143 296.9081 14.18414405582971"
      },
      "geometry": {
        "type": "Point",
        "coordinates": [
          3.661561561628032,
          -43.59223541508564
        ]
      }
    },
    {
      "type": "Feature",
      "properties": {
        "norad_id": 31695,
        "name": "FENGYUN 1C DEB",
        "group": "fengyun-1c-debris",
        "lat": 21.664642949715983,
        "lon": -94.21000702018148,
        "alt_km": 546.9180579639651,
        "timestamp": "2025-12-23T22:42:33.268249+00:00",
        "meta_object_name": "FENGYUN 1C DEB",
        "meta_object_id": "1999-025CDD",
        "meta_epoch": "2025-12-20T12:31:09.702912",
        "meta_mean_motion": 14.73845928,
        "meta_eccentricity": 0.01749697,
        "meta_inclination": 98.2649,
        "meta_ra_of_asc_node": 78.9886,
        "meta_arg_of_pericenter": 203.7711,
        "meta_mean_anomaly": 155.5345,
        "meta_ephemeris_type": 0,
        "meta_classification_type": "U",
        "meta_norad_cat_id": 31695,
        "meta_element_set_no": 999,
        "meta_rev_at_epoch": 66086,
        "meta_bstar": 0.0012316414,
        "meta_mean_motion_dot": 0.00010264,
        "meta_mean_motion_ddot": 0,
        "tle_line1": "1 31695U 99025CDD 25354.52164008  .00010264  00000+0  12316-2 0  9991",
        "tle_line2": "2 31695  98.2649  78.9886 0174969 203.7711 155.5345 14.73845928660862"
      },
      "geometry": {
        "type": "Point",
        "coordinates": [
          -94.21000702018148,
          21.664642949715983
        ]
      }
    },
    {
      "type": "Feature",
      "properties": {
        "norad_id": 31714,
        "name": "FENGYUN 1C DEB",
        "group": "fengyun-1c-debris",
        "lat": 55.45820643033128,
        "lon": 93.04374897716045,
        "alt_km": 604.965858785471,
        "timestamp": "2025-12-23T22:42:33.268259+00:00",
        "meta_object_name": "FENGYUN 1C DEB",
        "meta_object_id": "1999-025CDM",
        "meta_epoch": "2025-12-20T07:37:36.052032",
        "meta_mean_motion": 14.88778002,
        "meta_eccentricity": 0.00168865,
        "meta_inclination": 99.0321,
        "meta_ra_of_asc_node": 255.5489,
        "meta_arg_of_pericenter": 277.819,
        "meta_mean_anomaly": 208.4855,
        "meta_ephemeris_type": 0,
        "meta_classification_type": "U",
        "meta_norad_cat_id": 31714,
        "meta_element_set_no": 999,
        "meta_rev_at_epoch": 96162,
        "meta_bstar": 0.0040437912,
        "meta_mean_motion_dot": 0.0003806,
        "meta_mean_motion_ddot": 0,
        "tle_line1": "1 31714U 99025CDM 25354.31777838  .00038060  00000+0  40438-2 0  9991",
        "tle_line2": "2 31714  99.0321 255.5489 0016886 277.8190 208.4855 14.88778002961624"
      },
      "geometry": {
        "type": "Point",
        "coordinates": [
          93.04374897716045,
          55.45820643033128
        ]
      }
    },
    {
      "type": "Feature",
      "properties": {
        "norad_id": 31715,
        "name": "FENGYUN 1C DEB",
        "group": "fengyun-1c-debris",
        "lat": 21.59929988074074,
        "lon": 11.679015887844827,
        "alt_km": 674.5702440408131,
        "timestamp": "2025-12-23T22:42:33.268269+00:00",
        "meta_object_name": "FENGYUN 1C DEB",
        "meta_object_id": "1999-025CDN",
        "meta_epoch": "2025-12-22T06:19:04.023264",
        "meta_mean_motion": 14.52235042,
        "meta_eccentricity": 0.01870635,
        "meta_inclination": 99.2924,
        "meta_ra_of_asc_node": 186.1002,
        "meta_arg_of_pericenter": 91.1269,
        "meta_mean_anomaly": 271.136,
        "meta_ephemeris_type": 0,
        "meta_classification_type": "U",
        "meta_norad_cat_id": 31715,
        "meta_element_set_no": 999,
        "meta_rev_at_epoch": 61855,
        "meta_bstar": 0.00074319461,
        "meta_mean_motion_dot": 3.734e-05,
        "meta_mean_motion_ddot": 0,
        "tle_line1": "1 31715U 99025CDN 25356.26324101  .00003734  00000+0  74319-3 0  9995",
        "tle_line2": "2 31715  99.2924 186.1002 0187063  91.1269 271.1360 14.52235042618558"
      },
      "geometry": {
        "type": "Point",
        "coordinates": [
          11.679015887844827,
          21.59929988074074
        ]
      }
    },
    {
      "type": "Feature",
      "properties": {
        "norad_id": 31716,
        "name": "FENGYUN 1C DEB",
        "group": "fengyun-1c-debris",
        "lat": -59.237651879822266,
        "lon": -89.08473361144615,
        "alt_km": 935.1838750220059,
        "timestamp": "2025-12-23T22:42:33.268279+00:00",
        "meta_object_name": "FENGYUN 1C DEB",
        "meta_object_id": "1999-025CDP",
        "meta_epoch": "2025-12-23T04:53:16.834848",
        "meta_mean_motion": 14.03653597,
        "meta_eccentricity": 0.01310164,
        "meta_inclination": 98.5543,
        "meta_ra_of_asc_node": 255.5691,
        "meta_arg_of_pericenter": 62.0286,
        "meta_mean_anomaly": 88.8596,
        "meta_ephemeris_type": 0,
        "meta_classification_type": "U",
        "meta_norad_cat_id": 31716,
        "meta_element_set_no": 999,
        "meta_rev_at_epoch": 94266,
        "meta_bstar": 0.0015563682,
        "meta_mean_motion_dot": 2.599e-05,
        "meta_mean_motion_ddot": 0,
        "tle_line1": "1 31716U 99025CDP 25357.20366707  .00002599  00000+0  15564-2 0  9993",
        "tle_line2": "2 31716  98.5543 255.5691 0131016  62.0286  88.8596 14.03653597942667"
      },
      "geometry": {
        "type": "Point",
        "coordinates": [
          -89.08473361144615,
          -59.237651879822266
        ]
      }
    },
    {
      "type": "Feature",
      "properties": {
        "norad_id": 31720,
        "name": "FENGYUN 1C DEB",
        "group": "fengyun-1c-debris",
        "lat": -40.28874747149505,
        "lon": -81.11889582207503,
        "alt_km": 706.306161382634,
        "timestamp": "2025-12-23T22:42:33.268289+00:00",
        "meta_object_name": "FENGYUN 1C DEB",
        "meta_object_id": "1999-025CDT",
        "meta_epoch": "2025-12-23T04:56:58.714368",
        "meta_mean_motion": 14.71914634,
        "meta_eccentricity": 0.01003213,
        "meta_inclination": 99.0491,
        "meta_ra_of_asc_node": 270.2941,
        "meta_arg_of_pericenter": 91.4053,
        "meta_mean_anomaly": 269.8646,
        "meta_ephemeris_type": 0,
        "meta_classification_type": "U",
        "meta_norad_cat_id": 31720,
        "meta_element_set_no": 999,
        "meta_rev_at_epoch": 98390,
        "meta_bstar": 0.00083152432,
        "meta_mean_motion_dot": 5.575e-05,
        "meta_mean_motion_ddot": 0,
        "tle_line1": "1 31720U 99025CDT 25357.20623512  .00005575  00000+0  83152-3 0  9994",
        "tle_line2": "2 31720  99.0491 270.2941 0100321  91.4053 269.8646 14.71914634983901"
      },
      "geometry": {
        "type": "Point",
        "coordinates": [
          -81.11889582207503,
          -40.28874747149505
        ]
      }
    },
    {
      "type": "Feature",
      "properties": {
        "norad_id": 31721,
        "name": "FENGYUN 1C DEB",
        "group": "fengyun-1c-debris",
        "lat": 47.67782252689504,
        "lon": -33.07948701468285,
        "alt_km": 1038.647450569977,
        "timestamp": "2025-12-23T22:42:33.268300+00:00",
        "meta_object_name": "FENGYUN 1C DEB",
        "meta_object_id": "1999-025CDU",
        "meta_epoch": "2025-12-23T05:05:18.305952",
        "meta_mean_motion": 13.73786903,
        "meta_eccentricity": 0.03176777,
        "meta_inclination": 99.7822,
        "meta_ra_of_asc_node": 337.0889,
        "meta_arg_of_pericenter": 156.4359,
        "meta_mean_anomaly": 226.5806,
        "meta_ephemeris_type": 0,
        "meta_classification_type": "U",
        "meta_norad_cat_id": 31721,
        "meta_element_set_no": 999,
        "meta_rev_at_epoch": 67530,
        "meta_bstar": 0.00029599041,
        "meta_mean_motion_dot": 3.53e-06,
        "meta_mean_motion_ddot": 0,
        "tle_line1": "1 31721U 99025CDU 25357.21201743  .00000353  00000+0  29599-3 0  9998",
        "tle_line2": "2 31721  99.7822 337.0889 0317677 156.4359 226.5806 13.73786903675302"
      },
      "geometry": {
        "type": "Point",
        "coordinates": [
          -33.07948701468285,
          47.67782252689504
        ]
      }
    }
  ]
}